{"type": "FeatureCollection", "features": [ {"type": "Feature", "properties": {"norad_id": 35480, "name": "IRIDIUM 33 DEB", "group": "iridium-33-debris", "lat": 24.45669359591135, "lon": -155.0807461054068, "alt_km": 717.7914737097135, "timestamp": "2025-12-08T21:31:05.052024+00:00", "meta": {"OBJECT_NAME": "IRIDIUM 33 DEB", "OBJECT_ID": "1997-051QA", "EPOCH": "2025-12-01T21:29:27.496896", "MEAN_MOTION": 14.49686619, "ECCENTRICITY": 0.00155495, "INCLINATION": 86.3575, "RA_OF_ASC_NODE": 29.6125, "ARG_OF_PERICENTER": 136.7189, "MEAN_ANOMALY": 223.524, "EPHEMERIS_TYPE": 0, "CLASSIFICATION_TYPE": "U", "NORAD_CAT_ID": 35480, "ELEMENT_SET_NO": 999, "REV_AT_EPOCH": 86874, "BSTAR": 0.000651702, "MEAN_MOTION_DOT": 2.53e-05, "MEAN_MOTION_DDOT": 0}, "tle": {"line1": "1 35480U 97051QA  25335.89545714  .00002530  00000+0  65170-3 0  9994", "line2": "2 35480  86.3575  29.6125 0015549 136.7189 223.5240 14.49686619868745"}}, "geometry": {"type": "Point", "coordinates": [-155.0807461054068, 24.45669359591135]}}, {"type": "Feature", "properties": {"norad_id": 35484, "name": "IRIDIUM 33 DEB", "group": "iridium-33-debris", "lat": 3.7912977554084186, "lon": -5.2112137154012075, "alt_km": 586.0659020043113, "timestamp": "2025-12-08T21:31:05.052037+00:00", "meta": {"OBJECT_NAME": "IRIDIUM 33 DEB", "OBJECT_ID": "1997-051QE", "EPOCH": "2025-12-01T19:32:14.692416", "MEAN_MOTION": 14.97587734, "ECCENTRICITY": 0.00218288, "INCLINATION": 86.3628, "RA_OF_ASC_NODE": 357.8533, "ARG_OF_PERICENTER": 162.6444, "MEAN_ANOMALY": 197.5538, "EPHEMERIS_TYPE": 0, "CLASSIFICATION_TYPE": "U", "NORAD_CAT_ID": 35484, "ELEMENT_SET_NO": 999, "REV_AT_EPOCH": 61852, "BSTAR": 0.0025030806, "MEAN_MOTION_DOT": 0.00029486, "MEAN_MOTION_DDOT": 0}, "tle": {"line1": "1 35484U 97051QE  25335.81405894  .00029486  00000+0  25031-2 0  9994", "line2": "2 35484  86.3628 357.8533 0021828 162.6444 197.5538 14.97587734618526"}}, "geometry": {"type": "Point", "coordinates": [-5.2112137154012075, 3.7912977554084186]}}, {"type": "Feature", "properties": {"norad_id": 35488, "name": "IRIDIUM 33 DEB", "group": "iridium-33-debris", "lat": -29.62977632951491, "lon": -59.44552649220305, "alt_km": 624.0894080580974, "timestamp": "2025-12-08T21:31:05.052057+00:00", "meta": {"OBJECT_NAME": "IRIDIUM 33 DEB", "OBJECT_ID": "1997-051QJ", "EPOCH": "2025-12-08T03:50:11.826240", "MEAN_MOTION": 14.82876348, "ECCENTRICITY": 0.00303438, "INCLINATION": 86.325, "RA_OF_ASC_NODE": 302.9889, "ARG_OF_PERICENTER": 57.3882, "MEAN_ANOMALY": 303.0263, "EPHEMERIS_TYPE": 0, "CLASSIFICATION_TYPE": "U", "NORAD_CAT_ID": 35488, "ELEMENT_SET_NO": 999, "REV_AT_EPOCH": 88198, "BSTAR": 0.001993883, "MEAN_MOTION_DOT": 0.00016327, "MEAN_MOTION_DDOT": 0}, "tle": {"line1": "1 35488U 97051QJ  25342.15985910  .00016327  00000+0  19939-2 0  9995", "line2": "2 35488  86.3250 302.9889 0030343  57.3882 303.0263 14.82876348881981"}}, "geometry": {"type": "Point", "coordinates": [-59.44552649220305, -29.62977632951491]}}, {"type": "Feature", "properties": {"norad_id": 35616, "name": "IRIDIUM 33 DEB", "group": "iridium-33-debris", "lat": 32.73138682162213, "lon": 165.17078913164337, "alt_km": 616.518490392199, "timestamp": "2025-12-08T21:31:05.052070+00:00", "meta": {"OBJECT_NAME": "IRIDIUM 33 DEB", "OBJECT_ID": "1997-051QN", "EPOCH": "2025-12-08T11:07:50.751840", "MEAN_MOTION": 14.81642207, "ECCENTRICITY": 0.00095137, "INCLINATION": 86.3551, "RA_OF_ASC_NODE": 347.7164, "ARG_OF_PERICENTER": 179.1989, "MEAN_ANOMALY": 180.925, "EPHEMERIS_TYPE": 0, "CLASSIFICATION_TYPE": "U", "NORAD_CAT_ID": 35616, "ELEMENT_SET_NO": 999, "REV_AT_EPOCH": 87511, "BSTAR": 0.0020633393, "MEAN_MOTION_DOT": 0.00016284, "MEAN_MOTION_DDOT": 0}, "tle": {"line1": "1 35616U 97051QN  25342.46378185  .00016284  00000+0  20633-2 0  9997", "line2": "2 35616  86.3551 347.7164 0009513 179.1989 180.9250 14.81642207875117"}}, "geometry": {"type": "Point", "coordinates": [165.17078913164337, 32.73138682162213]}}, {"type": "Feature", "properties": {"norad_id": 35618, "name": "IRIDIUM 33 DEB", "group": "iridium-33-debris", "lat": -40.51147494970685, "lon": -7.952190448280826, "alt_km": 719.1589894369299, "timestamp": "2025-12-08T21:31:05.052081+00:00", "meta": {"OBJECT_NAME": "IRIDIUM 33 DEB", "OBJECT_ID": "1997-051QQ", "EPOCH": "2025-12-05T07:42:53.148672", "MEAN_MOTION": 14.52258119, "ECCENTRICITY": 0.00302089, "INCLINATION": 86.3407, "RA_OF_ASC_NODE": 356.7447, "ARG_OF_PERICENTER": 46.3254, "MEAN_ANOMALY": 314.0448, "EPHEMERIS_TYPE": 0, "CLASSIFICATION_TYPE": "U", "NORAD_CAT_ID": 35618, "ELEMENT_SET_NO": 999, "REV_AT_EPOCH": 65286, "BSTAR": 0.00091388234, "MEAN_MOTION_DOT": 3.753e-05, "MEAN_MOTION_DDOT": 0}, "tle": {"line1": "1 35618U 97051QQ  25339.32144848  .00003753  00000+0  91388-3 0  9990", "line2": "2 35618  86.3407 356.7447 0030208  46.3254 314.0448 14.52258119652865"}}, "geometry": {"type": "Point", "coordinates": [-7.952190448280826, -40.51147494970685]}}, {"type": "Feature", "properties": {"norad_id": 35620, "name": "IRIDIUM 33 DEB", "group": "iridium-33-debris", "lat": 40.55444836158777, "lon": 35.975104910076034, "alt_km": 830.576351867463, "timestamp": "2025-12-08T21:31:05.052091+00:00", "meta": {"OBJECT_NAME": "IRIDIUM 33 DEB", "OBJECT_ID": "1997-051QS", "EPOCH": "2025-12-08T09:10:03.259488", "MEAN_MOTION": 14.37817712, "ECCENTRICITY": 0.01428944, "INCLINATION": 86.3872, "RA_OF_ASC_NODE": 219.2913, "ARG_OF_PERICENTER": 273.357, "MEAN_ANOMALY": 85.129, "EPHEMERIS_TYPE": 0, "CLASSIFICATION_TYPE": "U", "NORAD_CAT_ID": 35620, "ELEMENT_SET_NO": 999, "REV_AT_EPOCH": 59903, "BSTAR": 0.0061742604, "MEAN_MOTION_DOT": 0.00020996, "MEAN_MOTION_DDOT": 0}, "tle": {"line1": "1 35620U 97051QS  25342.38198217  .00020996  00000+0  61743-2 0  9991", "line2": "2 35620  86.3872 219.2913 0142894 273.3570  85.1290 14.37817712599036"}}, "geometry": {"type": "Point", "coordinates": [35.975104910076034, 40.55444836158777]}}, {"type": "Feature", "properties": {"norad_id": 35622, "name": "IRIDIUM 33 DEB", "group": "iridium-33-debris", "lat": 29.358461631843895, "lon": -92.36500709267091, "alt_km": 548.4731911135123, "timestamp": "2025-12-08T21:31:05.052102+00:00", "meta": {"OBJECT_NAME": "IRIDIUM 33 DEB", "OBJECT_ID": "1997-051QU", "EPOCH": "2025-12-07T06:08:10.382208", "MEAN_MOTION": 15.0368423, "ECCENTRICITY": 0.00091825, "INCLINATION": 86.2049, "RA_OF_ASC_NODE": 266.3018, "ARG_OF_PERICENTER": 353.8818, "MEAN_ANOMALY": 157.8722, "EPHEMERIS_TYPE": 0, "CLASSIFICATION_TYPE": "U", "NORAD_CAT_ID": 35622, "ELEMENT_SET_NO": 999, "REV_AT_EPOCH": 87277, "BSTAR": 0.0074565803, "MEAN_MOTION_DOT": 0.00103587, "MEAN_MOTION_DDOT": 0}, "tle": {"line1": "1 35622U 97051QU  25341.25567572  .00103587  00000+0  74566-2 0  9997", "line2": "2 35622  86.2049 266.3018 0009182 353.8818 157.8722 15.03684230872776"}}, "geometry": {"type": "Point", "coordinates": [-92.36500709267091, 29.358461631843895]}}, {"type": "Feature", "properties": {"norad_id": 35628, "name": "IRIDIUM 33 DEB", "group": "iridium-33-debris", "lat": 6.262123766077954, "lon": 11.190042994058, "alt_km": 663.690191712305, "timestamp": "2025-12-08T21:31:05.052113+00:00", "meta": {"OBJECT_NAME": "IRIDIUM 33 DEB", "OBJECT_ID": "1997-051RA", "EPOCH": "2025-12-08T08:23:51.110304", "MEAN_MOTION": 14.67483029, "ECCENTRICITY": 0.00110057, "INCLINATION": 86.3575, "RA_OF_ASC_NODE": 11.0332, "ARG_OF_PERICENTER": 358.0388, "MEAN_ANOMALY": 2.0781, "EPHEMERIS_TYPE": 0, "CLASSIFICATION_TYPE": "U", "NORAD_CAT_ID": 35628, "ELEMENT_SET_NO": 999, "REV_AT_EPOCH": 86382, "BSTAR": 0.0017611926, "MEAN_MOTION_DOT": 0.0001001, "MEAN_MOTION_DDOT": 0}, "tle": {"line1": "1 35628U 97051RA  25342.34989711  .00010010  00000+0  17612-2 0  9994", "line2": "2 35628  86.3575  11.0332 0011005 358.0388   2.0781 14.67483029863821"}}, "geometry": {"type": "Point", "coordinates": [11.190042994058, 6.262123766077954]}}, {"type": "Feature", "properties": {"norad_id": 35631, "name": "IRIDIUM 33 DEB", "group": "iridium-33-debris", "lat": -2.269061270105643, "lon": -157.22410420214254, "alt_km": 729.9596648810575, "timestamp": "2025-12-08T21:31:05.052123+00:00", "meta": {"OBJECT_NAME": "IRIDIUM 33 DEB", "OBJECT_ID": "1997-051RD", "EPOCH": "2025-12-06T21:23:47.071392", "MEAN_MOTION": 14.47286545, "ECCENTRICITY": 0.00185223, "INCLINATION": 86.3689, "RA_OF_ASC_NODE": 23.4943, "ARG_OF_PERICENTER": 135.5581, "MEAN_ANOMALY": 46.1978, "EPHEMERIS_TYPE": 0, "CLASSIFICATION_TYPE": "U", "NORAD_CAT_ID": 35631, "ELEMENT_SET_NO": 999, "REV_AT_EPOCH": 87112, "BSTAR": 0.00062002851, "MEAN_MOTION_DOT": 2.292e-05, "MEAN_MOTION_DDOT": 0}, "tle": {"line1": "1 35631U 97051RD  25340.89151703  .00002292  00000+0  62003-3 0  9996", "line2": "2 35631  86.3689  23.4943 0018522 135.5581  46.1978 14.47286545871121"}}, "geometry": {"type": "Point", "coordinates": [-157.22410420214254, -2.269061270105643]}}, {"type": "Feature", "properties": {"norad_id": 35680, "name": "IRIDIUM 33 DEB", "group": "iridium-33-debris", "lat": 22.99148585008988, "lon": -158.4337029736173, "alt_km": 896.6001174182647, "timestamp": "2025-12-08T21:31:05.052134+00:00", "meta": {"OBJECT_NAME": "IRIDIUM 33 DEB", "OBJECT_ID": "1997-051RJ", "EPOCH": "2025-12-07T09:19:47.246592", "MEAN_MOTION": 14.20776466, "ECCENTRICITY": 0.01503971, "INCLINATION": 86.1018, "RA_OF_ASC_NODE": 23.8914, "ARG_OF_PERICENTER": 295.6462, "MEAN_ANOMALY": 74.8204, "EPHEMERIS_TYPE": 0, "CLASSIFICATION_TYPE": "U", "NORAD_CAT_ID": 35680, "ELEMENT_SET_NO": 999, "REV_AT_EPOCH": 60625, "BSTAR": 0.0056071361, "MEAN_MOTION_DOT": 0.00013594, "MEAN_MOTION_DDOT": 0}, "tle": {"line1": "1 35680U 97051RJ  25341.38874128  .00013594  00000+0  56071-2 0  9992", "line2": "2 35680  86.1018  23.8914 0150397 295.6462  74.8204 14.20776466606251"}}, "geometry": {"type": "Point", "coordinates": [-158.4337029736173, 22.99148585008988]}}]}